{
  "type": "FeatureCollection",
  "features": [
    {
      "type": "Feature",
      "properties": {
        "norad_id": 63632,
        "name": "SHENZHOU-20 (SZ-20)",
        "group": "stations",
        "lat": 41.409348617568874,
        "lon": 152.77401875332635,
        "alt_km": 388.03136042789083,
        "timestamp": "2025-12-04T15:47:52.888850+00:00",
        "meta_object_name": "SHENZHOU-20 (SZ-20)",
        "meta_object_id": "2025-082A",
        "meta_epoch": "2025-12-04T07:44:04.873632",
        "meta_mean_motion": 15.58643052,
        "meta_eccentricity": 0.00099613,
        "meta_inclination": 41.4682,
        "meta_ra_of_asc_node": 67.7893,
        "meta_arg_of_pericenter": 326.0847,
        "meta_mean_anomaly": 33.9353,
        "meta_ephemeris_type": 0,
        "meta_classification_type": "U",
        "meta_norad_cat_id": 63632,
        "meta_element_set_no": 999,
        "meta_rev_at_epoch": 25530,
        "meta_bstar": 0.00047338698,
        "meta_mean_motion_dot": 0.00037313,
        "meta_mean_motion_ddot": 0,
        "tle_line1": "1 63632U 25082A   25338.32227863  .00037313  00000+0  47339-3 0  9996",
        "tle_line2": "2 63632  41.4682  67.7893 0009961 326.0847  33.9353 15.58643052255302"
      },
      "geometry": {
        "type": "Point",
        "coordinates": [
          152.77401875332635,
          41.409348617568874
        ]
      }
    },
    {
      "type": "Feature",
      "properties": {
        "norad_id": 64751,
        "name": "PROGRESS-MS 31",
        "group": "stations",
        "lat": -50.2724298498957,
        "lon": 110.04979570489475,
        "alt_km": 422.8095015350873,
        "timestamp": "2025-12-04T15:47:52.888865+00:00",
        "meta_object_name": "PROGRESS-MS 31",
        "meta_object_id": "2025-146A",
        "meta_epoch": "2025-12-04T02:12:18.455328",
        "meta_mean_motion": 15.49293095,
        "meta_eccentricity": 0.00036281,
        "meta_inclination": 51.6302,
        "meta_ra_of_asc_node": 185.2932,
        "meta_arg_of_pericenter": 200.9086,
        "meta_mean_anomaly": 159.1754,
        "meta_ephemeris_type": 0,
        "meta_classification_type": "U",
        "meta_norad_cat_id": 64751,
        "meta_element_set_no": 999,
        "meta_rev_at_epoch": 675,
        "meta_bstar": 0.00029177423,
        "meta_mean_motion_dot": 0.00015824,
        "meta_mean_motion_ddot": 0,
        "tle_line1": "1 64751U 25146A   25338.09188027  .00015824  00000+0  29177-3 0  9995",
        "tle_line2": "2 64751  51.6302 185.2932 0003628 200.9086 159.1754 15.49293095  6753"
      },
      "geometry": {
        "type": "Point",
        "coordinates": [
          110.04979570489475,
          -50.2724298498957
        ]
      }
    },
    {
      "type": "Feature",
      "properties": {
        "norad_id": 64786,
        "name": "TIANZHOU-9",
        "group": "stations",
        "lat": 41.409348675705104,
        "lon": 152.77402100537066,
        "alt_km": 388.03136059208555,
        "timestamp": "2025-12-04T15:47:52.888876+00:00",
        "meta_object_name": "TIANZHOU-9",
        "meta_object_id": "2025-149A",
        "meta_epoch": "2025-12-04T07:44:04.873632",
        "meta_mean_motion": 15.58643052,
        "meta_eccentricity": 0.00099613,
        "meta_inclination": 41.4682,
        "meta_ra_of_asc_node": 67.7893,
        "meta_arg_of_pericenter": 326.0847,
        "meta_mean_anomaly": 33.9353,
        "meta_ephemeris_type": 0,
        "meta_classification_type": "U",
        "meta_norad_cat_id": 64786,
        "meta_element_set_no": 999,
        "meta_rev_at_epoch": 25530,
        "meta_bstar": 0.00047338698,
        "meta_mean_motion_dot": 0.00037313,
        "meta_mean_motion_ddot": 0,
        "tle_line1": "1 64786U 25149A   25338.32227863  .00037313  00000+0  47339-3 0  9991",
        "tle_line2": "2 64786  41.4682  67.7893 0009961 326.0847  33.9353 15.58643052255303"
      },
      "geometry": {
        "type": "Point",
        "coordinates": [
          152.77402100537066,
          41.409348675705104
        ]
      }
    },
    {
      "type": "Feature",
      "properties": {
        "norad_id": 65077,
        "name": "CREW DRAGON 11",
        "group": "stations",
        "lat": -50.272429483863974,
        "lon": 110.04979805642323,
        "alt_km": 422.80950159003714,
        "timestamp": "2025-12-04T15:47:52.888889+00:00",
        "meta_object_name": "CREW DRAGON 11",
        "meta_object_id": "2025-166A",
        "meta_epoch": "2025-12-04T02:12:18.455328",
        "meta_mean_motion": 15.49293095,
        "meta_eccentricity": 0.00036281,
        "meta_inclination": 51.6302,
        "meta_ra_of_asc_node": 185.2932,
        "meta_arg_of_pericenter": 200.9086,
        "meta_mean_anomaly": 159.1754,
        "meta_ephemeris_type": 0,
        "meta_classification_type": "U",
        "meta_norad_cat_id": 65077,
        "meta_element_set_no": 999,
        "meta_rev_at_epoch": 214,
        "meta_bstar": 0.00029177423,
        "meta_mean_motion_dot": 0.00015824,
        "meta_mean_motion_ddot": 0,
        "tle_line1": "1 65077U 25166A   25338.09188027  .00015824  00000+0  29177-3 0  9999",
        "tle_line2": "2 65077  51.6302 185.2932 0003628 200.9086 159.1754 15.49293095  2144"
      },
      "geometry": {
        "type": "Point",
        "coordinates": [
          110.04979805642323,
          -50.272429483863974
        ]
      }
    },
    {
      "type": "Feature",
      "properties": {
        "norad_id": 65304,
        "name": "DRAGON CRS-33",
        "group": "stations",
        "lat": -50.272429331350615,
        "lon": 110.0497990362275,
        "alt_km": 422.80950161293185,
        "timestamp": "2025-12-04T15:47:52.888899+00:00",
        "meta_object_name": "DRAGON CRS-33",
        "meta_object_id": "2025-186A",
        "meta_epoch": "2025-12-04T02:12:18.455328",
        "meta_mean_motion": 15.49293095,
        "meta_eccentricity": 0.00036281,
        "meta_inclination": 51.6302,
        "meta_ra_of_asc_node": 185.2932,
        "meta_arg_of_pericenter": 200.9086,
        "meta_mean_anomaly": 159.1754,
        "meta_ephemeris_type": 0,
        "meta_classification_type": "U",
        "meta_norad_cat_id": 65304,
        "meta_element_set_no": 999,
        "meta_rev_at_epoch": 11,
        "meta_bstar": 0.00029177423,
        "meta_mean_motion_dot": 0.00015824,
        "meta_mean_motion_ddot": 0,
        "tle_line1": "1 65304U 25186A   25338.09188027  .00015824  00000+0  29177-3 0  9994",
        "tle_line2": "2 65304  51.6302 185.2932 0003628 200.9086 159.1754 15.49293095   112"
      },
      "geometry": {
        "type": "Point",
        "coordinates": [
          110.0497990362275,
          -50.272429331350615
        ]
      }
    },
    {
      "type": "Feature",
      "properties": {
        "norad_id": 65586,
        "name": "PROGRESS-MS 32",
        "group": "stations",
        "lat": -50.27242907207774,
        "lon": 110.04980070189576,
        "alt_km": 422.8095016518564,
        "timestamp": "2025-12-04T15:47:52.888916+00:00",
        "meta_object_name": "PROGRESS-MS 32",
        "meta_object_id": "2025-204A",
        "meta_epoch": "2025-12-04T02:12:18.455328",
        "meta_mean_motion": 15.49293095,
        "meta_eccentricity": 0.00036281,
        "meta_inclination": 51.6302,
        "meta_ra_of_asc_node": 185.2932,
        "meta_arg_of_pericenter": 200.9086,
        "meta_mean_anomaly": 159.1754,
        "meta_ephemeris_type": 0,
        "meta_classification_type": "U",
        "meta_norad_cat_id": 65586,
        "meta_element_set_no": 999,
        "meta_rev_at_epoch": 27,
        "meta_bstar": 0.00029177423,
        "meta_mean_motion_dot": 0.00015824,
        "meta_mean_motion_ddot": 0,
        "tle_line1": "1 65586U 25204A   25338.09188027  .00015824  00000+0  29177-3 0  9997",
        "tle_line2": "2 65586  51.6302 185.2932 0003628 200.9086 159.1754 15.49293095   271"
      },
      "geometry": {
        "type": "Point",
        "coordinates": [
          110.04980070189576,
          -50.27242907207774
        ]
      }
    },
    {
      "type": "Feature",
      "properties": {
        "norad_id": 65616,
        "name": "CYGNUS NG-23",
        "group": "stations",
        "lat": -50.27242890431321,
        "lon": 110.04980177967933,
        "alt_km": 422.8095016770403,
        "timestamp": "2025-12-04T15:47:52.888927+00:00",
        "meta_object_name": "CYGNUS NG-23",
        "meta_object_id": "2025-208A",
        "meta_epoch": "2025-12-04T02:12:18.455328",
        "meta_mean_motion": 15.49293095,
        "meta_eccentricity": 0.00036281,
        "meta_inclination": 51.6302,
        "meta_ra_of_asc_node": 185.2932,
        "meta_arg_of_pericenter": 200.9086,
        "meta_mean_anomaly": 159.1754,
        "meta_ephemeris_type": 0,
        "meta_classification_type": "U",
        "meta_norad_cat_id": 65616,
        "meta_element_set_no": 999,
        "meta_rev_at_epoch": 22,
        "meta_bstar": 0.00029177423,
        "meta_mean_motion_dot": 0.00015824,
        "meta_mean_motion_ddot": 0,
        "tle_line1": "1 65616U 25208A   25338.09188027  .00015824  00000+0  29177-3 0  9995",
        "tle_line2": "2 65616  51.6302 185.2932 0003628 200.9086 159.1754 15.49293095   220"
      },
      "geometry": {
        "type": "Point",
        "coordinates": [
          110.04980177967933,
          -50.27242890431321
        ]
      }
    }
  ]
}